O3B FM5                 
1 39188U 13031A   23249.83288049 -.00000029  00000+0  00000+0 0  9999
2 39188   0.0399 346.0532 0002990 178.3671 195.5884  5.00115679186287
O3B FM4                 
1 39189U 13031B   23249.48877430 -.00000029  00000+0  00000+0 0  9999
2 39189   0.0560  14.1522 0002949 150.0664 195.7903  5.00116155186298
O3B FM2                 
1 39190U 13031C   23249.58069100 -.00000029  00000+0  00000+0 0  9999
2 39190   0.0591  18.0860 0002786 145.8709 196.0516  5.00115336186343
O3B PFM                 
1 39191U 13031D   23249.40664406 -.00000028  00000+0  00000+0 0  9990
2 39191   0.0451 356.0795 0002547 167.3735 196.5549  5.00116011185895
O3B FM3                 
1 40079U 14038A   23249.46105429 -.00000028  00000+0  00000+0 0  9996
2 40079   0.0501   8.5887 0000435  97.0946 254.3211  5.00116702162280
O3B FM7                 
1 40080U 14038B   23249.80744081 -.00000029  00000+0  00000+0 0  9990
2 40080   0.0498  13.7795 0004426 146.9450 199.2919  5.00115651167134
O3B FM6                 
1 40081U 14038C   23249.63417413 -.00000029  00000+0  00000+0 0  9998
2 40081   0.0511   8.5796 0002625 154.3291 197.0998  5.00115249167067
O3B FM8                 
1 40082U 14038D   23249.68774667 -.00000029  00000+0  00000+0 0  9991
2 40082   0.0540  10.3141 0002558 156.2884 193.4038  5.00115958167195
O3B FM10                
1 40348U 14083A   23249.51431217 -.00000029  00000+0  00000+0 0  9999
2 40348   0.0499 358.4609 0002611 166.8815 194.6648  5.00115318159134
O3B FM11                
1 40349U 14083B   23249.52762054 -.00000028  00000+0  00000+0 0  9996
2 40349   0.0454   0.2337 0003210 157.6621 202.1176  5.00115542159157
O3B FM12                
1 40350U 14083C   23249.35500622 -.00000028  00000+0  00000+0 0  9990
2 40350   0.0462   0.9149 0002650 158.6183 200.4771  5.00115464159152
O3B FM9                 
1 40351U 14083D   23249.38146114 -.00000028  00000+0  00000+0 0  9996
2 40351   0.0442   0.2582 0002674 163.5565 196.1934  5.00115038159306
DIAMOND RED             
1 42783U 17036U   23249.05702463  .00033771  00000+0  70811-3 0  9998
2 42783  97.1445 282.2290 0008359 155.3051 204.8600 15.45291802345263
DIAMOND GREEN           
1 42785U 17036W   23249.89579402  .00040691  00000+0  80475-3 0  9993
2 42785  97.1434 283.4053 0008235 152.0603 208.1091 15.46964705345488
DIAMOND BLUE            
1 42786U 17036X   23249.88560113  .00035804  00000+0  72778-3 0  9999
2 42786  97.1440 283.2747 0008400 151.3051 208.8663 15.46190366345393
LEO VANTAGE 1           
1 43113U 18004C   23249.83136563  .00002599  00000+0  20806-3 0  9993
2 43113  99.2655  23.7478 0388171 287.4603  68.4520 14.57187180289162
O3B FM15                
1 43231U 18024A   23249.64741386 -.00000029  00000+0  00000+0 0  9997
2 43231   0.0530 356.8556 0002706 163.7584 199.3958  5.00114505100264
O3B FM16                
1 43232U 18024B   23249.50069941 -.00000028  00000+0  00000+0 0  9992
2 43232   0.0563 354.3789 0002750 166.3377 199.2934  5.00116251100184
O3B FM14                
1 43233U 18024C   23247.94160793 -.00000026  00000+0  00000+0 0  9994
2 43233   0.0579 354.2677 0002936 164.9783 200.7655  5.00115698100113
O3B FM13                
1 43234U 18024D   23249.59441627 -.00000029  00000+0  00000+0 0  9999
2 43234   0.0435 358.8334 0002632 146.9249 214.2582  5.00115685100312
O3B FM20                
1 44112U 19020A   23249.36752296 -.00000028  00000+0  00000+0 0  9993
2 44112   0.0503 359.1150 0002921 154.2569 206.6427  5.00115729 80805
O3B FM19                
1 44113U 19020B   23249.59441244 -.00000029  00000+0  00000+0 0  9998
2 44113   0.0289 352.2413 0004166 175.9687 191.7994  5.00115602 80675
O3B FM17                
1 44114U 19020C   23249.67457070 -.00000029  00000+0  00000+0 0  9992
2 44114   0.0688   5.5707 0002697 153.1974 201.2426  5.00116021 80771
O3B FM18                
1 44115U 19020D   23248.82144595 -.00000027  00000+0  00000+0 0  9992
2 44115   0.0499 358.8640 0002695 163.2482 197.8969  5.00116033 80850
SALSAT                  
1 46495U 20068K   23249.66382452  .00004899  00000+0  31738-3 0  9994
2 46495  97.7755 198.5974 0014571 195.8803 164.1970 15.08530047161352
O3B MPOWER F1           
1 54755U 22174A   23249.80283564 -.00000029  00000+0  00000+0 0  9998
2 54755   0.0448  15.6950 0004693 164.0150   8.5869  5.00118489 14613
O3B MPOWER F2           
1 54756U 22174B   23249.40959456 -.00000028  00000+0  00000+0 0  9994
2 54756   0.0469  17.1291 0006161 203.7836 139.0408  5.00113820 14664
O3B MPOWER F4           
1 56367U 23059A   23249.53064562 -.00000029  00000+0  00000+0 0  9997
2 56367   0.0392 353.4170 0006119 187.0713 179.5108  5.00115561  7844
O3B MPOWER F3           
1 56368U 23059B   23249.83061257 -.00000029  00000+0  00000+0 0  9999
2 56368   0.0396 350.0179 0002344 193.8080 176.1718  5.00115152  3986
